{"fetched_at":"2026-07-21T07:06:30.166Z","source":"https://celestrak.org/NORAD/elements/gp.php?GROUP=planet&FORMAT=JSON","constellation":"pelican","records":[{"OBJECT_NAME":"PELICAN-1","OBJECT_ID":"2023-174AS","EPOCH":"2026-07-20T06:37:31.745568","CLASSIFICATION_TYPE":"U","MEAN_MOTION":15.71998752,"ECCENTRICITY":0.00069171,"INCLINATION":97.4045,"RA_OF_ASC_NODE":303.6671,"ARG_OF_PERICENTER":185.6287,"MEAN_ANOMALY":174.4899,"EPHEMERIS_TYPE":0,"NORAD_CAT_ID":58296,"ELEMENT_SET_NO":999,"REV_AT_EPOCH":15136,"BSTAR":0.000051003943,"MEAN_MOTION_DOT":0.00006525,"MEAN_MOTION_DDOT":0},{"OBJECT_NAME":"PELICAN-2","OBJECT_ID":"2025-009Y","EPOCH":"2026-07-20T19:40:08.947200","CLASSIFICATION_TYPE":"U","MEAN_MOTION":15.40663928,"ECCENTRICITY":0.00028421,"INCLINATION":97.2045,"RA_OF_ASC_NODE":292.2914,"ARG_OF_PERICENTER":113.901,"MEAN_ANOMALY":246.2535,"EPHEMERIS_TYPE":0,"NORAD_CAT_ID":62631,"ELEMENT_SET_NO":999,"REV_AT_EPOCH":8473,"BSTAR":0.000001965981,"MEAN_MOTION_DOT":0,"MEAN_MOTION_DDOT":0},{"OBJECT_NAME":"PELICAN-3","OBJECT_ID":"2025-188A","EPOCH":"2026-07-20T17:58:41.979072","CLASSIFICATION_TYPE":"U","MEAN_MOTION":15.41331534,"ECCENTRICITY":0.00021272,"INCLINATION":97.1977,"RA_OF_ASC_NODE":277.4059,"ARG_OF_PERICENTER":113.8067,"MEAN_ANOMALY":246.3403,"EPHEMERIS_TYPE":0,"NORAD_CAT_ID":65315,"ELEMENT_SET_NO":999,"REV_AT_EPOCH":5048,"BSTAR":0.00013029328,"MEAN_MOTION_DOT":0.00005348,"MEAN_MOTION_DDOT":0},{"OBJECT_NAME":"PELICAN-4","OBJECT_ID":"2025-188B","EPOCH":"2026-07-20T18:31:21.657216","CLASSIFICATION_TYPE":"U","MEAN_MOTION":15.40381415,"ECCENTRICITY":0.00014752,"INCLINATION":97.1982,"RA_OF_ASC_NODE":277.5718,"ARG_OF_PERICENTER":72.2835,"MEAN_ANOMALY":287.8573,"EPHEMERIS_TYPE":0,"NORAD_CAT_ID":65316,"ELEMENT_SET_NO":999,"REV_AT_EPOCH":5048,"BSTAR":0.00012531112,"MEAN_MOTION_DOT":0.0000498,"MEAN_MOTION_DDOT":0},{"OBJECT_NAME":"PELICAN-5","OBJECT_ID":"2025-276B","EPOCH":"2026-07-20T17:21:59.424480","CLASSIFICATION_TYPE":"U","MEAN_MOTION":15.33016399,"ECCENTRICITY":0.00035626,"INCLINATION":97.4074,"RA_OF_ASC_NODE":276.7042,"ARG_OF_PERICENTER":69.5727,"MEAN_ANOMALY":290.5898,"EPHEMERIS_TYPE":0,"NORAD_CAT_ID":66667,"ELEMENT_SET_NO":999,"REV_AT_EPOCH":3565,"BSTAR":0.00035155555,"MEAN_MOTION_DOT":0.00011139,"MEAN_MOTION_DDOT":0},{"OBJECT_NAME":"PELICAN-6","OBJECT_ID":"2025-276AP","EPOCH":"2026-07-20T19:02:27.627648","CLASSIFICATION_TYPE":"U","MEAN_MOTION":15.31624969,"ECCENTRICITY":0.00024057,"INCLINATION":97.3716,"RA_OF_ASC_NODE":276.7409,"ARG_OF_PERICENTER":36.5218,"MEAN_ANOMALY":323.6188,"EPHEMERIS_TYPE":0,"NORAD_CAT_ID":66703,"ELEMENT_SET_NO":999,"REV_AT_EPOCH":3567,"BSTAR":0.00010183903,"MEAN_MOTION_DOT":0.00003032,"MEAN_MOTION_DDOT":0},{"OBJECT_NAME":"PELICAN-7","OBJECT_ID":"2026-100AP","EPOCH":"2026-07-20T23:21:40.275648","CLASSIFICATION_TYPE":"U","MEAN_MOTION":15.23848337,"ECCENTRICITY":0.00032903,"INCLINATION":97.3806,"RA_OF_ASC_NODE":99.3301,"ARG_OF_PERICENTER":79.2615,"MEAN_ANOMALY":280.8992,"EPHEMERIS_TYPE":0,"NORAD_CAT_ID":69017,"ELEMENT_SET_NO":999,"REV_AT_EPOCH":1195,"BSTAR":0.00011411771,"MEAN_MOTION_DOT":0.00002681,"MEAN_MOTION_DDOT":0},{"OBJECT_NAME":"PELICAN-9","OBJECT_ID":"2026-100AR","EPOCH":"2026-07-20T03:58:15.697344","CLASSIFICATION_TYPE":"U","MEAN_MOTION":15.22992891,"ECCENTRICITY":0.00023098,"INCLINATION":97.3558,"RA_OF_ASC_NODE":98.3437,"ARG_OF_PERICENTER":117.9517,"MEAN_ANOMALY":242.1954,"EPHEMERIS_TYPE":0,"NORAD_CAT_ID":69019,"ELEMENT_SET_NO":999,"REV_AT_EPOCH":1182,"BSTAR":0.000052506772,"MEAN_MOTION_DOT":0.00001165,"MEAN_MOTION_DDOT":0}]}
