PELICAN-1               
1 58296U 23174AS  26201.27606187  .00006525  00000+0  51004-4 0  9996
2 58296  97.4045 303.6671 0006917 185.6287 174.4899 15.71998752151369
PELICAN-2               
1 62631U 25009Y   26201.81954800  .00000000  00000+0  19660-5 0  9996
2 62631  97.2045 292.2914 0002842 113.9010 246.2535 15.40663928 84730
PELICAN-3               
1 65315U 25188A   26201.74909698  .00005348  00000+0  13029-3 0  9994
2 65315  97.1977 277.4059 0002127 113.8067 246.3403 15.41331534 50483
PELICAN-4               
1 65316U 25188B   26201.77177844  .00004980  00000+0  12531-3 0  9996
2 65316  97.1982 277.5718 0001475  72.2835 287.8573 15.40381415 50489
PELICAN-5               
1 66667U 25276B   26201.72360445  .00011139  00000+0  35156-3 0  9992
2 66667  97.4074 276.7042 0003562  69.5727 290.5898 15.33016399 35654
PELICAN-6               
1 66703U 25276AP  26201.79337532  .00003032  00000+0  10184-3 0  9998
2 66703  97.3716 276.7409 0002405  36.5218 323.6188 15.31624969 35676
PELICAN-7               
1 69017U 26100AP  26201.97338282  .00002681  00000+0  11412-3 0  9993
2 69017  97.3806  99.3301 0003290  79.2615 280.8992 15.23848337 11955
PELICAN-9               
1 69019U 26100AR  26201.16545946  .00001165  00000+0  52507-4 0  9990
2 69019  97.3558  98.3437 0002309 117.9517 242.1954 15.22992891 11820
